OBJECT_NAME,OBJECT_ID,EPOCH,MEAN_MOTION,ECCENTRICITY,INCLINATION,RA_OF_ASC_NODE,ARG_OF_PERICENTER,MEAN_ANOMALY,EPHEMERIS_TYPE,CLASSIFICATION_TYPE,NORAD_CAT_ID,ELEMENT_SET_NO,REV_AT_EPOCH,BSTAR,MEAN_MOTION_DOT,MEAN_MOTION_DDOT
ONEWEB-0616,2023-004T,2026-07-06T10:20:22.572384,13.17650363,.00013623,87.9137,2.0392,118.8047,241.3221,0,U,55157,999,17023,.61967339E-4,.37E-6,0
ONEWEB-0617,2023-004U,2026-07-06T18:02:16.791936,13.11416191,.0002085,87.8883,17.1732,79.1536,280.9827,0,U,55158,999,16842,.13809E-2,.502E-5,0
ONEWEB-0618,2023-004V,2026-07-06T10:25:52.216896,15.13321187,.0010774,86.9098,169.8192,209.2490,150.8149,0,U,55159,999,18517,.24225E-3,.4351E-4,0
ONEWEB-0619,2023-004W,2026-07-06T18:23:56.285952,13.17650283,.0001572,87.9147,1.9546,81.7143,278.4166,0,U,55160,999,17017,.26345E-3,.115E-5,0
ONEWEB-0620,2023-004X,2026-07-06T12:25:21.086688,13.11416310,.0002106,87.8876,17.2272,91.5274,268.6095,0,U,55161,999,16836,.15488E-2,.562E-5,0
ONEWEB-0621,2023-004Y,2026-07-06T18:34:00.132960,13.11414653,.000183,87.8888,17.1670,81.5437,278.5898,0,U,55162,999,16837,-.84568E-3,-.287E-5,0
ONEWEB-0622,2023-004Z,2026-07-06T13:11:43.499328,13.11415280,.0002407,87.8889,17.2141,76.5619,283.5778,0,U,55163,999,16833,-.12697E-2,-.437E-5,0
ONEWEB-0623,2023-004AA,2026-07-06T12:48:35.440992,13.17647767,.0001994,87.9134,2.0289,67.7031,292.4312,0,U,55164,999,17013,-.36952E-4,-.1E-7,0
ONEWEB-0624,2023-004AB,2026-07-06T11:25:05.849760,13.12929259,.0001798,87.8958,346.7460,89.8000,270.3335,0,U,55165,999,17060,-.87833E-3,-.305E-5,0
ONEWEB-0625,2023-004AC,2026-07-06T18:02:04.015104,13.17650472,.0001723,87.9137,1.9818,93.7798,266.3531,0,U,55166,999,17015,.11461E-3,.57E-6,0
ONEWEB-0626,2023-004AD,2026-07-06T17:47:30.754752,13.17645024,.0002059,87.9137,1.9831,98.9585,261.1779,0,U,55167,999,17015,.26425E-2,.1039E-4,0
ONEWEB-0627,2023-004AE,2026-07-06T17:30:28.418112,13.17649266,.0001921,87.9137,1.9860,76.0257,284.1088,0,U,55168,999,17015,.12134E-3,.6E-6,0
ONEWEB-0628,2023-004AF,2026-07-06T20:17:31.404768,13.12441723,.0001761,87.8961,346.7437,72.4802,287.6519,0,U,55169,999,17061,-.80556E-3,-.277E-5,0
ONEWEB-0629,2023-004AG,2026-07-06T13:16:33.143232,13.17649575,.0001617,87.9136,2.0170,84.4081,275.7235,0,U,55170,999,17013,.11505E-3,.58E-6,0
ONEWEB-0631,2023-004AH,2026-07-06T10:47:59.841024,13.18686253,.0002367,87.9187,331.6046,94.0815,266.0588,0,U,55171,999,17221,.2117E-4,.21E-6,0
ONEWEB-0709,2023-004AJ,2026-07-06T14:00:34.272000,13.11417281,.0002494,87.8878,17.2163,104.6298,255.5107,0,U,55172,999,16841,.95939E-3,.353E-5,0
ONEWEB-0710,2023-004AK,2026-07-06T17:15:53.295840,13.17648369,.0001967,87.9137,1.9791,86.8499,273.2858,0,U,55173,999,17015,.25143E-3,.111E-5,0
ONEWEB-0711,2023-004AL,2026-07-06T13:19:02.834688,13.11416067,.0002202,87.8881,17.2100,70.9377,289.1990,0,U,55174,999,16837,-.13758E-2,-.475E-5,0
ONEWEB-0713,2023-004AM,2026-07-06T13:45:54.975744,13.11418003,.0002035,87.8883,17.2081,78.4899,281.6458,0,U,55175,999,16836,.97918E-4,.47E-6,0
ONEWEB-0715,2023-004AN,2026-07-06T13:38:35.095200,13.11417514,.0002499,87.8881,17.2096,95.6509,264.4904,0,U,55176,999,16840,-.60687E-3,-.202E-5,0
ONEWEB-0716,2023-004AP,2026-07-06T11:38:07.357632,13.17647839,.0001691,87.9137,2.0286,95.8863,264.2462,0,U,55177,999,17012,.12571E-3,.62E-6,0
ONEWEB-0717,2023-004AQ,2026-07-06T20:20:34.820736,13.17649480,.0002271,87.9146,1.9460,79.7995,280.3393,0,U,55178,999,17022,-.76658E-4,-.17E-6,0
ONEWEB-0719,2023-004AR,2026-07-06T11:28:24.909312,13.17650455,.0001667,87.9147,1.9997,90.8808,269.2515,0,U,55179,999,17012,.89223E-4,.48E-6,0
ONEWEB-0530,2023-029A,2026-07-06T17:03:45.171072,13.20772393,.0002002,87.9181,270.5772,86.1192,274.0170,0,U,55796,999,16372,.69317E-4,.41E-6,0
ONEWEB-0534,2023-029B,2026-07-06T16:46:46.025184,13.20772937,.0001988,87.9184,270.5802,101.7368,258.3989,0,U,55797,999,16372,-.34213E-4,-.1E-7,0
ONEWEB-0556,2023-029C,2026-07-06T16:56:27.663072,13.20769833,.0001186,87.9180,270.5777,100.6291,259.4976,0,U,55798,999,16372,-.63997E-4,-.13E-6,0
ONEWEB-0562,2023-029D,2026-07-06T16:37:04.981728,13.20772038,.0001607,87.9182,270.5614,75.9564,284.1748,0,U,55799,999,16372,-.68798E-4,-.15E-6,0
ONEWEB-0563,2023-029E,2026-07-06T16:29:47.584320,13.20773538,.0001986,87.9181,270.5928,106.2855,253.8497,0,U,55800,999,16371,-.10905E-3,-.31E-6,0
ONEWEB-0564,2023-029F,2026-07-06T16:20:07.427328,13.20771907,.0001871,87.9182,270.5679,88.9297,271.2050,0,U,55801,999,16372,-.9902E-4,-.27E-6,0
ONEWEB-0638,2023-029G,2026-07-06T17:26:51.200736,13.14555689,.0000616,87.8963,285.8565,91.4973,268.6227,0,U,55802,999,16196,-.28202E-1,-.10439E-3,0
