[
  {
    "name": "ONEWEB-0616",
    "noradId": "55157",
    "line1": "1 55157U 23004T   26187.43081681  .00000037  00000+0  61967-4 0  9999",
    "line2": "2 55157  87.9137   2.0392 0001362 118.8047 241.3221 13.17650363170230"
  },
  {
    "name": "ONEWEB-0617",
    "noradId": "55158",
    "line1": "1 55158U 23004U   26187.75158324  .00000502  00000+0  13809-2 0  9991",
    "line2": "2 55158  87.8883  17.1732 0002085  79.1536 280.9827 13.11416191168420"
  },
  {
    "name": "ONEWEB-0618",
    "noradId": "55159",
    "line1": "1 55159U 23004V   26187.43463214  .00004351  00000+0  24225-3 0  9995",
    "line2": "2 55159  86.9098 169.8192 0010774 209.2490 150.8149 15.13321187185170"
  },
  {
    "name": "ONEWEB-0619",
    "noradId": "55160",
    "line1": "1 55160U 23004W   26187.76662368  .00000115  00000+0  26345-3 0  9993",
    "line2": "2 55160  87.9147   1.9546 0001572  81.7143 278.4166 13.17650283170175"
  },
  {
    "name": "ONEWEB-0620",
    "noradId": "55161",
    "line1": "1 55161U 23004X   26187.51760517  .00000562  00000+0  15488-2 0  9993",
    "line2": "2 55161  87.8876  17.2272 0002106  91.5274 268.6095 13.11416310168363"
  },
  {
    "name": "ONEWEB-0621",
    "noradId": "55162",
    "line1": "1 55162U 23004Y   26187.77361265 -.00000287  00000+0 -84568-3 0  9991",
    "line2": "2 55162  87.8888  17.1670 0001830  81.5437 278.5898 13.11414653168371"
  },
  {
    "name": "ONEWEB-0622",
    "noradId": "55163",
    "line1": "1 55163U 23004Z   26187.54980902 -.00000437  00000+0 -12697-2 0  9992",
    "line2": "2 55163  87.8889  17.2141 0002407  76.5619 283.5778 13.11415280168330"
  },
  {
    "name": "ONEWEB-0623",
    "noradId": "55164",
    "line1": "1 55164U 23004AA  26187.53374353 -.00000001  00000+0 -36952-4 0  9998",
    "line2": "2 55164  87.9134   2.0289 0001994  67.7031 292.4312 13.17647767170137"
  },
  {
    "name": "ONEWEB-0624",
    "noradId": "55165",
    "line1": "1 55165U 23004AB  26187.47576215 -.00000305  00000+0 -87833-3 0  9993",
    "line2": "2 55165  87.8958 346.7460 0001798  89.8000 270.3335 13.12929259170609"
  },
  {
    "name": "ONEWEB-0625",
    "noradId": "55166",
    "line1": "1 55166U 23004AC  26187.75143536  .00000057  00000+0  11461-3 0  9997",
    "line2": "2 55166  87.9137   1.9818 0001723  93.7798 266.3531 13.17650472170159"
  },
  {
    "name": "ONEWEB-0626",
    "noradId": "55167",
    "line1": "1 55167U 23004AD  26187.74132818  .00001039  00000+0  26425-2 0  9994",
    "line2": "2 55167  87.9137   1.9831 0002059  98.9585 261.1779 13.17645024170153"
  },
  {
    "name": "ONEWEB-0627",
    "noradId": "55168",
    "line1": "1 55168U 23004AE  26187.72949558  .00000060  00000+0  12134-3 0  9996",
    "line2": "2 55168  87.9137   1.9860 0001921  76.0257 284.1088 13.17649266170156"
  },
  {
    "name": "ONEWEB-0628",
    "noradId": "55169",
    "line1": "1 55169U 23004AF  26187.84550237 -.00000277  00000+0 -80556-3 0  9997",
    "line2": "2 55169  87.8961 346.7437 0001761  72.4802 287.6519 13.12441723170610"
  },
  {
    "name": "ONEWEB-0629",
    "noradId": "55170",
    "line1": "1 55170U 23004AG  26187.55316138  .00000058  00000+0  11505-3 0  9990",
    "line2": "2 55170  87.9136   2.0170 0001617  84.4081 275.7235 13.17649575170135"
  },
  {
    "name": "ONEWEB-0631",
    "noradId": "55171",
    "line1": "1 55171U 23004AH  26187.44999816  .00000021  00000+0  21170-4 0  9999",
    "line2": "2 55171  87.9187 331.6046 0002367  94.0815 266.0588 13.18686253172210"
  },
  {
    "name": "ONEWEB-0709",
    "noradId": "55172",
    "line1": "1 55172U 23004AJ  26187.58373000  .00000353  00000+0  95939-3 0  9997",
    "line2": "2 55172  87.8878  17.2163 0002494 104.6298 255.5107 13.11417281168411"
  },
  {
    "name": "ONEWEB-0710",
    "noradId": "55173",
    "line1": "1 55173U 23004AK  26187.71936685  .00000111  00000+0  25143-3 0  9999",
    "line2": "2 55173  87.9137   1.9791 0001967  86.8499 273.2858 13.17648369170159"
  },
  {
    "name": "ONEWEB-0711",
    "noradId": "55174",
    "line1": "1 55174U 23004AL  26187.55489392 -.00000475  00000+0 -13758-2 0  9993",
    "line2": "2 55174  87.8881  17.2100 0002202  70.9377 289.1990 13.11416067168377"
  },
  {
    "name": "ONEWEB-0713",
    "noradId": "55175",
    "line1": "1 55175U 23004AM  26187.57355296  .00000047  00000+0  97918-4 0  9996",
    "line2": "2 55175  87.8883  17.2081 0002035  78.4899 281.6458 13.11418003168361"
  },
  {
    "name": "ONEWEB-0715",
    "noradId": "55176",
    "line1": "1 55176U 23004AN  26187.56846175 -.00000202  00000+0 -60687-3 0  9994",
    "line2": "2 55176  87.8881  17.2096 0002499  95.6509 264.4904 13.11417514168405"
  },
  {
    "name": "ONEWEB-0716",
    "noradId": "55177",
    "line1": "1 55177U 23004AP  26187.48480738  .00000062  00000+0  12571-3 0  9996",
    "line2": "2 55177  87.9137   2.0286 0001691  95.8863 264.2462 13.17647839170122"
  },
  {
    "name": "ONEWEB-0717",
    "noradId": "55178",
    "line1": "1 55178U 23004AQ  26187.84762524 -.00000017  00000+0 -76658-4 0  9992",
    "line2": "2 55178  87.9146   1.9460 0002271  79.7995 280.3393 13.17649480170224"
  },
  {
    "name": "ONEWEB-0719",
    "noradId": "55179",
    "line1": "1 55179U 23004AR  26187.47806608  .00000048  00000+0  89223-4 0  9998",
    "line2": "2 55179  87.9147   1.9997 0001667  90.8808 269.2515 13.17650455170121"
  },
  {
    "name": "ONEWEB-0530",
    "noradId": "55796",
    "line1": "1 55796U 23029A   26187.71093948  .00000041  00000+0  69317-4 0  9997",
    "line2": "2 55796  87.9181 270.5772 0002002  86.1192 274.0170 13.20772393163726"
  },
  {
    "name": "ONEWEB-0534",
    "noradId": "55797",
    "line1": "1 55797U 23029B   26187.69914381 -.00000001  00000+0 -34213-4 0  9993",
    "line2": "2 55797  87.9184 270.5802 0001988 101.7368 258.3989 13.20772937163722"
  },
  {
    "name": "ONEWEB-0556",
    "noradId": "55798",
    "line1": "1 55798U 23029C   26187.70587573 -.00000013  00000+0 -63997-4 0  9999",
    "line2": "2 55798  87.9180 270.5777 0001186 100.6291 259.4976 13.20769833163722"
  },
  {
    "name": "ONEWEB-0562",
    "noradId": "55799",
    "line1": "1 55799U 23029D   26187.69241877 -.00000015  00000+0 -68798-4 0  9998",
    "line2": "2 55799  87.9182 270.5614 0001607  75.9564 284.1748 13.20772038163723"
  },
  {
    "name": "ONEWEB-0563",
    "noradId": "55800",
    "line1": "1 55800U 23029E   26187.68735630 -.00000031  00000+0 -10905-3 0  9999",
    "line2": "2 55800  87.9181 270.5928 0001986 106.2855 253.8497 13.20773538163713"
  },
  {
    "name": "ONEWEB-0564",
    "noradId": "55801",
    "line1": "1 55801U 23029F   26187.68064152 -.00000027  00000+0 -99020-4 0  9995",
    "line2": "2 55801  87.9182 270.5679 0001871  88.9297 271.2050 13.20771907163725"
  },
  {
    "name": "ONEWEB-0638",
    "noradId": "55802",
    "line1": "1 55802U 23029G   26187.72698149 -.00010439  00000+0 -28202-1 0  9999",
    "line2": "2 55802  87.8963 285.8565 0000616  91.4973 268.6227 13.14555689161961"
  }
]